ONEWEB-0386             
1 49312U 21090AK  22096.58334491 -.00031675  00000+0 -32052-2 0  9994
2 49312  87.2082 231.8083 0003107  55.9455  79.2420 14.91269262 27350
ONEWEB-0387             
1 49313U 21090AL  22096.58334491 -.00030100  00000+0 -30456-2 0  9993
2 49313  87.2088 231.8044 0004842  73.5599 283.6577 14.91259543 27362
ONEWEB-0388             
1 49314U 21090AM  22096.58334491 -.00043672  00000+0 -10961+0 0  9998
2 49314  87.9164 249.5211 0001615  97.1726  89.8818 13.19745157 25560
ONEWEB-0389             
1 50469U 21132A   22096.58334491  .00033864  00000+0  33044-2 0  9998
2 50469  87.2184 320.7978 0000514 351.5310   9.1578 14.92278094 16339
ONEWEB-0390             
1 50470U 21132B   22095.91667824  .00021985  00000+0  21479-2 0  9995
2 50470  87.2226 321.0784 0002566  26.1715 158.9330 14.92278702 16223
ONEWEB-0391             
1 50471U 21132C   22095.91667824  .00025457  00000+0  24859-2 0  9999
2 50471  87.2168 321.0088 0002180  36.6908  74.9030 14.92284708 16236
ONEWEB-0392             
1 50472U 21132D   22096.25002315 -.00057430  00000+0 -56795-2 0  9998
2 50472  87.2213 320.9502 0000462 162.7314  93.6840 14.92323020 16283
ONEWEB-0393             
1 50473U 21132E   22096.58334491  .00039747  00000+0  38736-2 0  9992
2 50473  87.2201 320.8071 0000355 332.8463 213.3331 14.92299442 16339
ONEWEB-0394             
1 50474U 21132F   22095.91667824  .00021596  00000+0  21100-2 0  9998
2 50474  87.2231 321.0967 0002933  41.6599 247.5312 14.92276671  3556
ONEWEB-0395             
1 50475U 21132G   22096.25002315 -.00047230  00000+0 -46468-1 0  9993
2 50475  87.9126 325.9410 0016056 326.6236  60.2751 13.79112229 15909
ONEWEB-0396             
1 50476U 21132H   22095.91667824  .00025623  00000+0  25033-2 0  9994
2 50476  87.2266 321.1341 0001161 209.1137 207.0500 14.92267246  3574
ONEWEB-0397             
1 50477U 21132J   22096.58334491  .00038498  00000+0  37529-2 0  9997
2 50477  87.2273 320.9050 0002030  22.6682 209.7784 14.92293603 16311
ONEWEB-0398             
1 50478U 21132K   22096.58334491  .00000015  00000+0  00000+0 0  9993
2 50478  87.8892 325.9023 0019709 329.2100 159.2857 13.69305633 15939
ONEWEB-0399             
1 50479U 21132L   22096.58334491  .00000015  00000+0  00000+0 0  9994
2 50479  87.9000 325.8695 0019312 329.4202  63.5718 13.71299406 15915
ONEWEB-0400             
1 50480U 21132M   22095.91667824  .00022426  00000+0  21889-2 0  9992
2 50480  87.2218 321.0569 0001171  45.5829 127.6248 14.92316186  3550
ONEWEB-0401             
1 50481U 21132N   22096.58334491  .00034601  00000+0  33776-2 0  9994
2 50481  87.2246 320.8683 0002563  48.1383 337.9592 14.92257431 16320
ONEWEB-0402             
1 50482U 21132P   22096.58334491  .00039933  00000+0  38909-2 0  9991
2 50482  87.2249 320.8732 0002431  37.0514 118.0000 14.92305326 16325
ONEWEB-0403             
1 50483U 21132Q   22096.58334491  .00038477  00000+0  37497-2 0  9995
2 50483  87.2221 320.8423 0003098  73.8012 152.0914 14.92304167 16339
ONEWEB-0404             
1 50484U 21132R   22095.91667824  .00009394  00000+0  89593-2 0  9991
2 50484  87.8884 325.9834 0019545 325.8406  36.2425 13.80386407  3434
ONEWEB-0405             
1 50485U 21132S   22096.58334491  .00040843  00000+0  39803-2 0  9990
2 50485  87.2998 321.4938 0001319 155.0884 346.5581 14.92294718 16323
ONEWEB-0406             
1 50486U 21132T   22096.58334491  .00035467  00000+0  34567-2 0  9999
2 50486  87.2270 320.8924 0001257 219.4150 198.4384 14.92318221 16328
ONEWEB-0407             
1 50487U 21132U   22096.58334491  .00035303  00000+0  34442-2 0  9991
2 50487  87.2185 320.7970 0001861 167.5057 141.7520 14.92277331 16334
ONEWEB-0409             
1 50488U 21132V   22096.58334491  .00000015  00000+0  00000+0 0  9994
2 50488  87.9113 325.9086 0020396 329.0920  71.5986 13.68246045 15926
ONEWEB-0412             
1 50489U 21132W   22095.91667824  .00021951  00000+0  21435-2 0  9990
2 50489  87.2232 321.0974 0000848  40.0562 141.6157 14.92299815  3553
ONEWEB-0413             
1 50490U 21132X   22095.91667824  .00020615  00000+0  20123-2 0  9991
2 50490  87.2174 321.0032 0003062  24.3439 238.0159 14.92316092  3576
ONEWEB-0414             
1 50491U 21132Y   22096.58334491  .00036239  00000+0  35334-2 0  9996
2 50491  87.2216 320.8370 0001680 193.6671  94.0286 14.92297202 16338
ONEWEB-0417             
1 50492U 21132Z   22096.58334491  .00034542  00000+0  33704-2 0  9991
2 50492  87.2248 320.8774 0001886 205.7705 145.0837 14.92276366 16329
ONEWEB-0418             
1 50493U 21132AA  22096.58334491  .00038389  00000+0  37452-2 0  9999
2 50493  87.2282 320.9284 0001988   4.8485 232.0573 14.92263667 16314
ONEWEB-0419             
1 50494U 21132AB  22096.58334491  .00036768  00000+0  35886-2 0  9998
2 50494  87.2168 320.7731 0001962 178.8260 268.1108 14.92254408 16337
ONEWEB-0420             
1 50495U 21132AC  22096.58334491  .00036715  00000+0  35784-2 0  9998
2 50495  87.2111 320.6994 0002990  34.9477  45.4574 14.92308131 16358
ONEWEB-0421             
1 50496U 21132AD  22096.58334491  .00034159  00000+0  33312-2 0  9994
2 50496  87.2143 320.7348 0003593  56.2967 286.1908 14.92296224 16353
ONEWEB-0424             
1 50497U 21132AE  22096.58334491  .00038864  00000+0  37914-2 0  9994
2 50497  87.2313 320.9540 0000071 333.2515 264.4951 14.92263300 16327
ONEWEB-0426             
1 50498U 21132AF  22096.58334491  .00038307  00000+0  37362-2 0  9994
2 50498  87.2185 320.7935 0001767  89.9901 142.9021 14.92274546 16331
ONEWEB-0427             
1 50499U 21132AG  22096.25002315 -.00020781  00000+0 -20447-2 0  9991
2 50499  87.2121 320.8326 0002431 120.2823 343.5421 14.92347035 16302
ONEWEB-0429             
1 50500U 21132AH  22096.58334491  .00038681  00000+0  37700-2 0  9999
2 50500  87.2155 320.7403 0003226  42.1597 192.2782 14.92298369 16348
ONEWEB-0430             
1 50501U 21132AJ  22096.58334491  .00039406  00000+0  38401-2 0  9995
2 50501  87.2290 320.9334 0000588 152.2662 353.1687 14.92304193 16309
ONEWEB-0432             
1 50502U 21132AK  22096.58334491  .00036732  00000+0  35804-2 0  9999
2 50502  87.2142 320.7387 0002994  14.5388  64.6223 14.92304996 16356
ONEWEB-0440             
1 50503U 21132AL  22096.58334491  .00039754  00000+0  38730-2 0  9998
2 50503  87.2176 320.7703 0002687  40.6252 116.3370 14.92310981 16332
ONEWEB-0450             
1 50504U 21132AM  22096.58334491  .00034064  00000+0  33251-2 0  9991
2 50504  87.2270 320.9015 0000607  76.8132 293.6213 14.92263863 16324
ONEWEB-0410             
1 51622U 22012A   22096.58334491  .00066283  00000+0  62421-2 0  9990
2 51622  87.1889 342.2448 0001264  75.6094 339.4539 14.93520372  9562
ONEWEB-0411             
1 51623U 22012B   22096.25002315 -.01181778  00000+0 -36326+0 0  9994
2 51623  87.4756 343.6465 0019587  66.0611  16.2502 14.44861455  9420
ONEWEB-0415             
1 51624U 22012C   22096.25002315 -.01187471  00000+0 -36062+0 0  9998
2 51624  87.4802 343.6592 0019764  65.3615 129.2333 14.45464793  9430
ONEWEB-0416             
1 51625U 22012D   22096.58334491 -.01090428  00000+0 -30799+0 0  9994
2 51625  87.5061 343.5279 0017699  63.4436   7.9401 14.48688858  9504
ONEWEB-0422             
1 51626U 22012E   22096.25002315 -.00038185  00000+0 -36457-2 0  9997
2 51626  87.2446 342.6278 0004051 113.3764 151.8704 14.93613086  9512
ONEWEB-0423             
1 51627U 22012F   22096.25002315 -.00041663  00000+0 -39829-2 0  9999
2 51627  87.1902 342.3760 0002445  97.5646 323.8278 14.93583819  9516
ONEWEB-0425             
1 51628U 22012G   22095.91667824 -.01141438  00000+0 -31744+0 0  9991
2 51628  87.4916 343.7362 0016731  51.5770 233.5742 14.49575223  9401
ONEWEB-0428             
1 51629U 22012H   22095.91667824 -.01158971  00000+0 -35300+0 0  9994
2 51629  87.4724 343.7477 0018513  66.5730  18.7237 14.45257841  9375
ONEWEB-0431             
1 51630U 22012J   22096.25002315 -.01175348  00000+0 -32528+0 0  9998
2 51630  87.4982 343.6315 0017832  51.0021 248.8859 14.49882375  9453
ONEWEB-0434             
1 51631U 22012K   22096.58334491 -.00988816  00000+0 -28913+0 0  9992
2 51631  87.4958 343.5509 0015809  48.3572 114.4065 14.47266184  9508
ONEWEB-0435             
1 51632U 22012L   22096.25002315 -.01179107  00000+0 -35295+0 0  9991
2 51632  87.4809 343.6519 0018781  62.9628 196.1956 14.46148076  9438
ONEWEB-0436             
1 51633U 22012M   22096.58334491  .00073493  00000+0  69090-2 0  9992
2 51633  87.1862 342.2356 0002394  46.6862 122.3739 14.93549136  9570
ONEWEB-0438             
1 51634U 22012N   22095.91667824 -.01152697  00000+0 -31289+0 0  9991
2 51634  87.4982 343.7203 0020014  62.7692 112.4270 14.50702334  9410
ONEWEB-0439             
1 51635U 22012P   22096.25002315 -.01173726  00000+0 -33364+0 0  9990
2 51635  87.4948 343.6306 0015747  46.5783 227.8194 14.48639525  9452
ONEWEB-0442             
1 51636U 22012Q   22096.58334491  .00071426  00000+0  67161-2 0  9996
2 51636  87.1838 342.2171 0003434 113.3906 115.3326 14.93550091  9574
ONEWEB-0443             
1 51637U 22012R   22096.58334491  .00072271  00000+0  67882-2 0  9996
2 51637  87.1862 342.2365 0000772  59.5030 108.8785 14.93591630  9578
ONEWEB-0444             
1 51638U 22012S   22095.91667824 -.01177183  00000+0 -31957+0 0  9994
2 51638  87.5065 343.7481 0017420  65.8899 208.2043 14.50801987  9411
ONEWEB-0445             
1 51639U 22012T   22096.58334491 -.00885275  00000+0 -24720+0 0  9997
2 51639  87.5099 343.5408 0016580  51.3286 324.5266 14.49113730  9501
ONEWEB-0446             
1 51640U 22012U   22095.91667824 -.01145409  00000+0 -31046+0 0  9992
2 51640  87.5008 343.7277 0017678  64.9563 115.8009 14.50786140  9415
ONEWEB-0448             
1 51641U 22012V   22096.58334491 -.00885188  00000+0 -26680+0 0  9990
2 51641  87.4805 343.5102 0018449  57.2855 202.8019 14.45439571  9483
